{
  "type": "FeatureCollection",
  "features": [
    {
      "type": "Feature",
      "properties": {
        "norad_id": 42989,
        "name": "SKYSAT-C9",
        "group": "resource",
        "lat": -16.097206499914094,
        "lon": 125.26924355394047,
        "alt_km": 461.5548182687935,
        "timestamp": "2025-12-18T19:29:52.200641+00:00",
        "meta_object_name": "SKYSAT-C9",
        "meta_object_id": "2017-068C",
        "meta_epoch": "2025-12-18T07:03:42.551136",
        "meta_mean_motion": 15.36190512,
        "meta_eccentricity": 0.00105702,
        "meta_inclination": 97.419,
        "meta_ra_of_asc_node": 122.5919,
        "meta_arg_of_pericenter": 69.9784,
        "meta_mean_anomaly": 290.2597,
        "meta_ephemeris_type": 0,
        "meta_classification_type": "U",
        "meta_norad_cat_id": 42989,
        "meta_element_set_no": 999,
        "meta_rev_at_epoch": 45493,
        "meta_bstar": 0.00034468923,
        "meta_mean_motion_dot": 0.00012101,
        "meta_mean_motion_ddot": 0,
        "tle_line1": "1 42989U 17068C   25352.29424249  .00012101  00000+0  34469-3 0  9990",
        "tle_line2": "2 42989  97.4190 122.5919 0010570  69.9784 290.2597 15.36190512454931"
      },
      "geometry": {
        "type": "Point",
        "coordinates": [
          125.26924355394047,
          -16.097206499914094
        ]
      }
    },
    {
      "type": "Feature",
      "properties": {
        "norad_id": 42990,
        "name": "SKYSAT-C8",
        "group": "resource",
        "lat": -65.24812639448048,
        "lon": -73.59896649752852,
        "alt_km": 473.71368041132973,
        "timestamp": "2025-12-18T19:29:52.200651+00:00",
        "meta_object_name": "SKYSAT-C8",
        "meta_object_id": "2017-068D",
        "meta_epoch": "2025-12-18T04:19:40.626912",
        "meta_mean_motion": 15.33039437,
        "meta_eccentricity": 0.00011978,
        "meta_inclination": 97.428,
        "meta_ra_of_asc_node": 122.2043,
        "meta_arg_of_pericenter": 320.7312,
        "meta_mean_anomaly": 39.3843,
        "meta_ephemeris_type": 0,
        "meta_classification_type": "U",
        "meta_norad_cat_id": 42990,
        "meta_element_set_no": 999,
        "meta_rev_at_epoch": 45454,
        "meta_bstar": 0.00033004437,
        "meta_mean_motion_dot": 0.00010458,
        "meta_mean_motion_ddot": 0,
        "tle_line1": "1 42990U 17068D   25352.18033133  .00010458  00000+0  33004-3 0  9995",
        "tle_line2": "2 42990  97.4280 122.2043 0001197 320.7312  39.3843 15.33039437454546"
      },
      "geometry": {
        "type": "Point",
        "coordinates": [
          -73.59896649752852,
          -65.24812639448048
        ]
      }
    },
    {
      "type": "Feature",
      "properties": {
        "norad_id": 42991,
        "name": "SKYSAT-C7",
        "group": "resource",
        "lat": 82.45953923849449,
        "lon": 43.56994530142968,
        "alt_km": 457.86768547064,
        "timestamp": "2025-12-18T19:29:52.200661+00:00",
        "meta_object_name": "SKYSAT-C7",
        "meta_object_id": "2017-068E",
        "meta_epoch": "2025-12-17T21:10:21.597024",
        "meta_mean_motion": 15.32433807,
        "meta_eccentricity": 0.00073248,
        "meta_inclination": 97.4288,
        "meta_ra_of_asc_node": 122.9414,
        "meta_arg_of_pericenter": 41.2137,
        "meta_mean_anomaly": 318.9657,
        "meta_ephemeris_type": 0,
        "meta_classification_type": "U",
        "meta_norad_cat_id": 42991,
        "meta_element_set_no": 999,
        "meta_rev_at_epoch": 45456,
        "meta_bstar": 0.00028855662,
        "meta_mean_motion_dot": 8.966e-05,
        "meta_mean_motion_ddot": 0,
        "tle_line1": "1 42991U 17068E   25351.88219441  .00008966  00000+0  28856-3 0  9990",
        "tle_line2": "2 42991  97.4288 122.9414 0007324  41.2137 318.9657 15.32433807454561"
      },
      "geometry": {
        "type": "Point",
        "coordinates": [
          43.56994530142968,
          82.45953923849449
        ]
      }
    },
    {
      "type": "Feature",
      "properties": {
        "norad_id": 42992,
        "name": "SKYSAT-C6",
        "group": "resource",
        "lat": -7.392394263530877,
        "lon": -56.66161616811565,
        "alt_km": 476.84325187300874,
        "timestamp": "2025-12-18T19:29:52.200671+00:00",
        "meta_object_name": "SKYSAT-C6",
        "meta_object_id": "2017-068F",
        "meta_epoch": "2025-12-18T04:34:15.430368",
        "meta_mean_motion": 15.31600046,
        "meta_eccentricity": 0.00050692,
        "meta_inclination": 97.4321,
        "meta_ra_of_asc_node": 123.6852,
        "meta_arg_of_pericenter": 67.7962,
        "meta_mean_anomaly": 292.3817,
        "meta_ephemeris_type": 0,
        "meta_classification_type": "U",
        "meta_norad_cat_id": 42992,
        "meta_element_set_no": 999,
        "meta_rev_at_epoch": 45459,
        "meta_bstar": 0.00032153489,
        "meta_mean_motion_dot": 9.739e-05,
        "meta_mean_motion_ddot": 0,
        "tle_line1": "1 42992U 17068F   25352.19045637  .00009739  00000+0  32153-3 0  9994",
        "tle_line2": "2 42992  97.4321 123.6852 0005069  67.7962 292.3817 15.31600046454593"
      },
      "geometry": {
        "type": "Point",
        "coordinates": [
          -56.66161616811565,
          -7.392394263530877
        ]
      }
    },
    {
      "type": "Feature",
      "properties": {
        "norad_id": 43111,
        "name": "CARTOSAT-2F",
        "group": "resource",
        "lat": 25.817891391300435,
        "lon": 46.73189484935061,
        "alt_km": 507.46244392441804,
        "timestamp": "2025-12-18T19:29:52.200681+00:00",
        "meta_object_name": "CARTOSAT-2F",
        "meta_object_id": "2018-004A",
        "meta_epoch": "2025-12-18T14:38:27.890592",
        "meta_mean_motion": 15.19179725,
        "meta_eccentricity": 0.0001286,
        "meta_inclination": 97.4312,
        "meta_ra_of_asc_node": 50.1533,
        "meta_arg_of_pericenter": 111.9235,
        "meta_mean_anomaly": 248.2137,
        "meta_ephemeris_type": 0,
        "meta_classification_type": "U",
        "meta_norad_cat_id": 43111,
        "meta_element_set_no": 999,
        "meta_rev_at_epoch": 43991,
        "meta_bstar": 0.00017648,
        "meta_mean_motion_dot": 3.644e-05,
        "meta_mean_motion_ddot": 0,
        "tle_line1": "1 43111U 18004A   25352.61004503  .00003644  00000+0  17648-3 0  9994",
        "tle_line2": "2 43111  97.4312  50.1533 0001286 111.9235 248.2137 15.19179725439914"
      },
      "geometry": {
        "type": "Point",
        "coordinates": [
          46.73189484935061,
          25.817891391300435
        ]
      }
    },
    {
      "type": "Feature",
      "properties": {
        "norad_id": 43259,
        "name": "GAOFEN-1 02",
        "group": "resource",
        "lat": -61.98126136178389,
        "lon": 66.08922974528022,
        "alt_km": 648.1210713215869,
        "timestamp": "2025-12-18T19:29:52.200690+00:00",
        "meta_object_name": "GAOFEN-1 02",
        "meta_object_id": "2018-031A",
        "meta_epoch": "2025-12-18T06:46:15.550752",
        "meta_mean_motion": 14.76428112,
        "meta_eccentricity": 0.0002103,
        "meta_inclination": 98.0806,
        "meta_ra_of_asc_node": 50.0738,
        "meta_arg_of_pericenter": 195.9186,
        "meta_mean_anomaly": 164.1957,
        "meta_ephemeris_type": 0,
        "meta_classification_type": "U",
        "meta_norad_cat_id": 43259,
        "meta_element_set_no": 999,
        "meta_rev_at_epoch": 41600,
        "meta_bstar": 0.00015505706,
        "meta_mean_motion_dot": 1.026e-05,
        "meta_mean_motion_ddot": 0,
        "tle_line1": "1 43259U 18031A   25352.28212443  .00001026  00000+0  15506-3 0  9997",
        "tle_line2": "2 43259  98.0806  50.0738 0002103 195.9186 164.1957 14.76428112416004"
      },
      "geometry": {
        "type": "Point",
        "coordinates": [
          66.08922974528022,
          -61.98126136178389
        ]
      }
    },
    {
      "type": "Feature",
      "properties": {
        "norad_id": 43260,
        "name": "GAOFEN-1 03",
        "group": "resource",
        "lat": 51.808185783382484,
        "lon": 40.07760173653217,
        "alt_km": 636.3778026672326,
        "timestamp": "2025-12-18T19:29:52.200700+00:00",
        "meta_object_name": "GAOFEN-1 03",
        "meta_object_id": "2018-031B",
        "meta_epoch": "2025-12-18T07:52:30.481248",
        "meta_mean_motion": 14.76448348,
        "meta_eccentricity": 0.00017527,
        "meta_inclination": 98.0792,
        "meta_ra_of_asc_node": 49.9957,
        "meta_arg_of_pericenter": 293.5505,
        "meta_mean_anomaly": 66.552,
        "meta_ephemeris_type": 0,
        "meta_classification_type": "U",
        "meta_norad_cat_id": 43260,
        "meta_element_set_no": 999,
        "meta_rev_at_epoch": 41600,
        "meta_bstar": 0.00011597342,
        "meta_mean_motion_dot": 7.55e-06,
        "meta_mean_motion_ddot": 0,
        "tle_line1": "1 43260U 18031B   25352.32813057  .00000755  00000+0  11597-3 0  9996",
        "tle_line2": "2 43260  98.0792  49.9957 0001752 293.5505  66.5520 14.76448348416003"
      },
      "geometry": {
        "type": "Point",
        "coordinates": [
          40.07760173653217,
          51.808185783382484
        ]
      }
    }
  ]
}